{
  "type": "FeatureCollection",
  "features": [
    {
      "type": "Feature",
      "properties": {
        "norad_id": 66174,
        "name": "HTV-X1",
        "group": "stations",
        "lat": -29.139570338455705,
        "lon": 85.34839281811502,
        "alt_km": 420.039668289417,
        "timestamp": "2025-12-18T23:35:47.807853+00:00",
        "meta_object_name": "HTV-X1",
        "meta_object_id": "2025-241A",
        "meta_epoch": "2025-12-18T12:55:40.164384",
        "meta_mean_motion": 15.49652631,
        "meta_eccentricity": 0.00031724,
        "meta_inclination": 51.6314,
        "meta_ra_of_asc_node": 113.7624,
        "meta_arg_of_pericenter": 267.0099,
        "meta_mean_anomaly": 93.0526,
        "meta_ephemeris_type": 0,
        "meta_classification_type": "U",
        "meta_norad_cat_id": 66174,
        "meta_element_set_no": 999,
        "meta_rev_at_epoch": 51,
        "meta_bstar": 0.00013939492,
        "meta_mean_motion_dot": 7.413e-05,
        "meta_mean_motion_ddot": 0,
        "tle_line1": "1 66174U 25241A   25352.53865931  .00007413  00000+0  13939-3 0  9997",
        "tle_line2": "2 66174  51.6314 113.7624 0003172 267.0099  93.0526 15.49652631   519"
      },
      "geometry": {
        "type": "Point",
        "coordinates": [
          85.34839281811502,
          -29.139570338455705
        ]
      }
    },
    {
      "type": "Feature",
      "properties": {
        "norad_id": 66515,
        "name": "SZ-21 MODULE",
        "group": "stations",
        "lat": -35.77401244033706,
        "lon": -76.70168938073982,
        "alt_km": 378.47445469578633,
        "timestamp": "2025-12-18T23:35:47.807863+00:00",
        "meta_object_name": "SZ-21 MODULE",
        "meta_object_id": "2025-246C",
        "meta_epoch": "2025-12-18T08:31:24.923712",
        "meta_mean_motion": 15.62772734,
        "meta_eccentricity": 0.00058547,
        "meta_inclination": 41.4774,
        "meta_ra_of_asc_node": 341.7845,
        "meta_arg_of_pericenter": 290.1533,
        "meta_mean_anomaly": 69.8677,
        "meta_ephemeris_type": 0,
        "meta_classification_type": "U",
        "meta_norad_cat_id": 66515,
        "meta_element_set_no": 999,
        "meta_rev_at_epoch": 532,
        "meta_bstar": 0.00027860354,
        "meta_mean_motion_dot": 0.00025551,
        "meta_mean_motion_ddot": 0,
        "tle_line1": "1 66515U 25246C   25352.35514958  .00025551  00000+0  27860-3 0  9992",
        "tle_line2": "2 66515  41.4774 341.7845 0005854 290.1533  69.8677 15.62772734  5326"
      },
      "geometry": {
        "type": "Point",
        "coordinates": [
          -76.70168938073982,
          -35.77401244033706
        ]
      }
    },
    {
      "type": "Feature",
      "properties": {
        "norad_id": 66645,
        "name": "SHENZHOU-22",
        "group": "stations",
        "lat": -28.227197373069973,
        "lon": -58.63978116051305,
        "alt_km": 395.00437890363446,
        "timestamp": "2025-12-18T23:35:47.807873+00:00",
        "meta_object_name": "SHENZHOU-22",
        "meta_object_id": "2025-272A",
        "meta_epoch": "2025-12-18T06:53:03.575616",
        "meta_mean_motion": 15.59417882,
        "meta_eccentricity": 0.00077258,
        "meta_inclination": 41.4683,
        "meta_ra_of_asc_node": 343.0261,
        "meta_arg_of_pericenter": 79.3286,
        "meta_mean_anomaly": 280.8422,
        "meta_ephemeris_type": 0,
        "meta_classification_type": "U",
        "meta_norad_cat_id": 66645,
        "meta_element_set_no": 999,
        "meta_rev_at_epoch": 26357,
        "meta_bstar": 0.00029030456,
        "meta_mean_motion_dot": 0.00023377,
        "meta_mean_motion_ddot": 0,
        "tle_line1": "1 66645U 25272A   25352.28684694  .00023377  00000+0  29030-3 0  9997",
        "tle_line2": "2 66645  41.4683 343.0261 0007725  79.3286 280.8422 15.59417882263579"
      },
      "geometry": {
        "type": "Point",
        "coordinates": [
          -58.63978116051305,
          -28.227197373069973
        ]
      }
    },
    {
      "type": "Feature",
      "properties": {
        "norad_id": 66664,
        "name": "SOYUZ-MS 28",
        "group": "stations",
        "lat": -29.139568976263742,
        "lon": 85.34839439317625,
        "alt_km": 420.03966825768475,
        "timestamp": "2025-12-18T23:35:47.807883+00:00",
        "meta_object_name": "SOYUZ-MS 28",
        "meta_object_id": "2025-275A",
        "meta_epoch": "2025-12-18T12:55:40.164384",
        "meta_mean_motion": 15.49652631,
        "meta_eccentricity": 0.00031724,
        "meta_inclination": 51.6314,
        "meta_ra_of_asc_node": 113.7624,
        "meta_arg_of_pericenter": 267.0099,
        "meta_mean_anomaly": 93.0526,
        "meta_ephemeris_type": 0,
        "meta_classification_type": "U",
        "meta_norad_cat_id": 66664,
        "meta_element_set_no": 999,
        "meta_rev_at_epoch": 128,
        "meta_bstar": 0.00013939492,
        "meta_mean_motion_dot": 7.413e-05,
        "meta_mean_motion_ddot": 0,
        "tle_line1": "1 66664U 25275A   25352.53865931  .00007413  00000+0  13939-3 0  9998",
        "tle_line2": "2 66664  51.6314 113.7624 0003172 267.0099  93.0526 15.49652631  1288"
      },
      "geometry": {
        "type": "Point",
        "coordinates": [
          85.34839439317625,
          -29.139568976263742
        ]
      }
    },
    {
      "type": "Feature",
      "properties": {
        "norad_id": 66906,
        "name": "1998-067XS",
        "group": "stations",
        "lat": 12.932166474815293,
        "lon": 121.92831567611506,
        "alt_km": 414.7105199086245,
        "timestamp": "2025-12-18T23:35:47.807894+00:00",
        "meta_object_name": "1998-067XS",
        "meta_object_id": "1998-067XS",
        "meta_epoch": "2025-12-18T14:14:47.325984",
        "meta_mean_motion": 15.50877887,
        "meta_eccentricity": 0.00030668,
        "meta_inclination": 51.6311,
        "meta_ra_of_asc_node": 113.3804,
        "meta_arg_of_pericenter": 230.517,
        "meta_mean_anomaly": 129.5548,
        "meta_ephemeris_type": 0,
        "meta_classification_type": "U",
        "meta_norad_cat_id": 66906,
        "meta_element_set_no": 999,
        "meta_rev_at_epoch": 252,
        "meta_bstar": 0.00040765177,
        "meta_mean_motion_dot": 0.00023614,
        "meta_mean_motion_ddot": 0,
        "tle_line1": "1 66906U 98067XS  25352.59360331  .00023614  00000+0  40765-3 0  9994",
        "tle_line2": "2 66906  51.6311 113.3804 0003066 230.5170 129.5548 15.50877887  2528"
      },
      "geometry": {
        "type": "Point",
        "coordinates": [
          121.92831567611506,
          12.932166474815293
        ]
      }
    },
    {
      "type": "Feature",
      "properties": {
        "norad_id": 66907,
        "name": "1998-067XT",
        "group": "stations",
        "lat": 40.97598117149266,
        "lon": 154.8458872577735,
        "alt_km": 407.1202653870332,
        "timestamp": "2025-12-18T23:35:47.807904+00:00",
        "meta_object_name": "1998-067XT",
        "meta_object_id": "1998-067XT",
        "meta_epoch": "2025-12-18T14:04:54.777504",
        "meta_mean_motion": 15.52162368,
        "meta_eccentricity": 0.00039418,
        "meta_inclination": 51.6304,
        "meta_ra_of_asc_node": 113.334,
        "meta_arg_of_pericenter": 262.1658,
        "meta_mean_anomaly": 97.8884,
        "meta_ephemeris_type": 0,
        "meta_classification_type": "U",
        "meta_norad_cat_id": 66907,
        "meta_element_set_no": 999,
        "meta_rev_at_epoch": 252,
        "meta_bstar": 0.0008765902,
        "meta_mean_motion_dot": 0.0005395,
        "meta_mean_motion_ddot": 0,
        "tle_line1": "1 66907U 98067XT  25352.58674511  .00053950  00000+0  87659-3 0  9991",
        "tle_line2": "2 66907  51.6304 113.3340 0003941 262.1658  97.8884 15.52162368  2523"
      },
      "geometry": {
        "type": "Point",
        "coordinates": [
          154.8458872577735,
          40.97598117149266
        ]
      }
    },
    {
      "type": "Feature",
      "properties": {
        "norad_id": 66908,
        "name": "1998-067XU",
        "group": "stations",
        "lat": 43.12041452538073,
        "lon": 159.25112330327642,
        "alt_km": 406.6480710691176,
        "timestamp": "2025-12-18T23:35:47.807915+00:00",
        "meta_object_name": "1998-067XU",
        "meta_object_id": "1998-067XU",
        "meta_epoch": "2025-12-18T14:03:56.443680",
        "meta_mean_motion": 15.52259493,
        "meta_eccentricity": 0.00039838,
        "meta_inclination": 51.6306,
        "meta_ra_of_asc_node": 113.3296,
        "meta_arg_of_pericenter": 260.0245,
        "meta_mean_anomaly": 100.0295,
        "meta_ephemeris_type": 0,
        "meta_classification_type": "U",
        "meta_norad_cat_id": 66908,
        "meta_element_set_no": 999,
        "meta_rev_at_epoch": 252,
        "meta_bstar": 0.00087908108,
        "meta_mean_motion_dot": 0.00054298,
        "meta_mean_motion_ddot": 0,
        "tle_line1": "1 66908U 98067XU  25352.58606995  .00054298  00000+0  87908-3 0  9996",
        "tle_line2": "2 66908  51.6306 113.3296 0003983 260.0245 100.0295 15.52259493  2520"
      },
      "geometry": {
        "type": "Point",
        "coordinates": [
          159.25112330327642,
          43.12041452538073
        ]
      }
    }
  ]
}